SL-8 R/B                
1 15483U 85006B   26166.90379384  .00000181  00000+0  68727-4 0  9997
2 15483  74.0459  80.4258 0018839 327.7449 100.6764 14.37834587168148
SL-12 R/B(2)            
1 15772U 85042D   26166.62321098  .00000119  00000+0  75031-4 0  9993
2 15772  71.1079 240.8206 0036259 330.1140 135.1498 14.22005631128318
SL-14 R/B               
1 15945U 85069B   26166.82293132  .00000394  00000+0  41698-4 0  9990
2 15945  82.5269 292.6489 0017697 223.9548 136.0262 14.86514649187410
SL-16 R/B               
1 16182U 85097B   26166.79435929 -.00000190  00000+0 -71374-4 0  9993
2 16182  71.0034 294.0104 0005414 114.5052 355.6819 14.16610346101121
SL-14 R/B               
1 16496U 86006B   26166.70568022  .00000484  00000+0  48725-4 0  9992
2 16496  82.5261 167.5075 0075045 308.4803  50.9697 14.86944349163772
COSMOS 1743             
1 16719U 86034A   26166.93335444  .00039564  00000+0  37347-3 0  9994
2 16719  82.5275 330.0647 0003837 276.6056  83.4767 15.66843257195592
SL-14 R/B               
1 16792U 86046B   26166.94056255  .00000326  00000+0  34700-4 0  9994
2 16792  82.4816 347.3535 0021585 262.8961  96.9801 14.85670271140998
SL-14 R/B               
1 16882U 86055B   26166.92344336  .00000348  00000+0  37196-4 0  9998
2 16882  82.5204  34.3212 0019186  11.8127 358.9138 14.85722410133950
AJISAI (EGS)            
1 16908U 86061A   26166.93664376 -.00000114  00000+0 -12012-3 0  9996
2 16908  50.0065 151.2403 0011221 177.4327 277.9060 12.44516819480235
SL-14 R/B               
1 17567U 87024B   26166.93828232  .00000336  00000+0  35451-4 0  9998
2 17567  82.5279   0.4245 0016874 297.7717  62.1788 14.86212463102723
COSMOS 1833             
1 17589U 87027A   26166.97566116  .00000311  00000+0  19165-3 0  9995
2 17589  70.9176 119.4146 0022760  57.1271 303.2037 14.13049104 24201
SL-16 R/B               
1 17590U 87027B   26166.94560473 -.00000224  00000+0 -87460-4 0  9993
2 17590  71.0033  69.4450 0006482 313.5797  46.4788 14.17171992 29269
SL-14 R/B               
1 17912U 87038B   26166.84903793  .00000304  00000+0  32378-4 0  9993
2 17912  82.5009 204.3328 0018767 195.6357 164.4282 14.85444489 93801
COSMOS 1844             
1 17973U 87041A   26166.76355532 -.00000175  00000+0 -65432-4 0  9992
2 17973  70.8971 187.3103 0032966 237.6495 122.1435 14.14568175 17453
SL-14 R/B               
1 18153U 87055B   26166.74142284  .00000346  00000+0  36856-4 0  9990
2 18153  82.4996 256.5919 0021793  52.2103 308.1083 14.85710259 84490
COSMOS 1867             
1 18187U 87060A   26166.94559082 -.00000053  00000+0  17819-4 0  9997
2 18187  65.0116  31.5359 0016506 282.1550  77.7686 14.31515663 34006
SL-14 R/B               
1 18749U 88001B   26166.87803377  .00000349  00000+0  37450-4 0  9998
2 18749  82.5132 103.0052 0016450 274.2784  85.6552 14.85608792 56601
COSMOS 1933             
1 18958U 88020A   26166.98332077  .00003308  00000+0  15803-3 0  9992
2 18958  82.5119 153.6271 0003418 188.9557 171.1617 15.18705934 65146
SL-3 R/B                
1 19046U 88032B   26166.92721522  .00003429  00000+0  15752-3 0  9992
2 19046  97.5254 149.9691 0023763 249.7831 110.0849 15.20832478 67037
SL-16 R/B               
1 19120U 88039B   26166.85253947 -.00000057  00000+0 -40355-5 0  9990
2 19120  71.0139 220.9804 0022345 195.1831 164.8627 14.19629434972314
COSMOS 1953             
1 19210U 88050A   26166.77608958  .00007108  00000+0  24347-3 0  9993
2 19210  82.5082  59.4577 0012030 130.6170 229.6118 15.29962614 52776
SL-8 R/B                
1 19257U 88053B   26166.83437309  .00000147  00000+0  56127-4 0  9992
2 19257  74.0479 291.5509 0019152  87.3681  29.0114 14.38966960990714
COSMOS 1975             
1 19573U 88093A   26166.97658413  .00005699  00000+0  19898-3 0  9993
2 19573  82.5187  18.9200 0011203 175.6555 184.4784 15.29312880 34427
SL-14 R/B               
1 19574U 88093B   26166.93715750  .00000372  00000+0  39798-4 0  9993
2 19574  82.5310 309.8184 0022114  74.2999  47.8668 14.85741026 15609
SL-16 R/B               
1 19650U 88102B   26166.80446394 -.00000217  00000+0 -85139-4 0  9990
2 19650  71.0001 305.0486 0015860 227.3300 132.6488 14.16164577940787
INTERCOSMOS 24          
1 20261U 89080A   26166.90460823  .00000825  00000+0  23391-3 0  9994
2 20261  82.6066  40.4795 1188377  64.8779 307.0790 12.59660169679166
SL-14 R/B               
1 20262U 89080C   26166.88235805  .00000260  00000+0  77515-4 0  9993
2 20262  82.5931 110.1459 1228814 320.3880  31.3367 12.50570094672420
DELTA 1 R/B             
1 20323U 89089B   26166.97776746  .00000266  00000+0  74326-4 0  9997
2 20323  97.0636 358.7295 0069142 170.7850 189.4636 14.50730725909988
ARIANE 40 R/B           
1 20443U 90005H   26166.86339151  .00000212  00000+0  80971-4 0  9997
2 20443  98.2960 224.5206 0008800 268.9466  91.0715 14.39926761906935
DELTA 2 R/B(1)          
1 20453U 90008B   26166.91772224  .00068207  00000+0  50863-3 0  9993
2 20453  35.5995 244.1514 0065184 102.3413 258.4633 15.68645393941501
