OBJECT_NAME,OBJECT_ID,EPOCH,MEAN_MOTION,ECCENTRICITY,INCLINATION,RA_OF_ASC_NODE,ARG_OF_PERICENTER,MEAN_ANOMALY,EPHEMERIS_TYPE,CLASSIFICATION_TYPE,NORAD_CAT_ID,ELEMENT_SET_NO,REV_AT_EPOCH,BSTAR,MEAN_MOTION_DOT,MEAN_MOTION_DDOT
SL-8 R/B,1985-006B,2026-06-15T21:41:27.787776,14.37834587,.00188397,74.0459,80.4258,327.7449,100.6764,0,U,15483,999,16814,.68727337E-4,.181E-5,0
SL-12 R/B(2),1985-042D,2026-06-15T14:57:25.428672,14.22005631,.00362596,71.1079,240.8206,330.1140,135.1498,0,U,15772,999,12831,.75030676E-4,.119E-5,0
SL-14 R/B,1985-069B,2026-06-15T19:45:01.266048,14.86514649,.00176972,82.5269,292.6489,223.9548,136.0262,0,U,15945,999,18741,.41697566E-4,.394E-5,0
SL-16 R/B,1985-097B,2026-06-15T19:03:52.642656,14.16610346,.00054144,71.0034,294.0104,114.5052,355.6819,0,U,16182,999,10112,-.7137392E-4,-.19E-5,0
SL-14 R/B,1986-006B,2026-06-15T16:56:10.771008,14.86944349,.00750459,82.5261,167.5075,308.4803,50.9697,0,U,16496,999,16377,.48724553E-4,.484E-5,0
COSMOS 1743,1986-034A,2026-06-15T22:24:01.823616,15.66843257,.0003837,82.5275,330.0647,276.6056,83.4767,0,U,16719,999,19559,.37347376E-3,.39564E-3,0
SL-14 R/B,1986-046B,2026-06-15T22:34:24.604320,14.85670271,.00215856,82.4816,347.3535,262.8961,96.9801,0,U,16792,999,14099,.34700171E-4,.326E-5,0
SL-14 R/B,1986-055B,2026-06-15T22:09:45.506304,14.85722410,.0019186,82.5204,34.3212,11.8127,358.9138,0,U,16882,999,13395,.37195571E-4,.348E-5,0
AJISAI (EGS),1986-061A,2026-06-15T22:28:46.020864,12.44516819,.00112211,50.0065,151.2403,177.4327,277.9060,0,U,16908,999,48023,-.12012217E-3,-.114E-5,0
SL-14 R/B,1987-024B,2026-06-15T22:31:07.592448,14.86212463,.00168749,82.5279,0.4245,297.7717,62.1788,0,U,17567,999,10272,.35450666E-4,.336E-5,0
COSMOS 1833,1987-027A,2026-06-15T23:24:57.124224,14.13049104,.00227602,70.9176,119.4146,57.1271,303.2037,0,U,17589,999,2420,.19165161E-3,.311E-5,0
SL-16 R/B,1987-027B,2026-06-15T22:41:40.248672,14.17171992,.00064827,71.0033,69.4450,313.5797,46.4788,0,U,17590,999,2926,-.87460117E-4,-.224E-5,0
SL-14 R/B,1987-038B,2026-06-15T20:22:36.877152,14.85444489,.00187672,82.5009,204.3328,195.6357,164.4282,0,U,17912,999,9380,.32378011E-4,.304E-5,0
COSMOS 1844,1987-041A,2026-06-15T18:19:31.179648,14.14568175,.00329669,70.8971,187.3103,237.6495,122.1435,0,U,17973,999,1745,-.65431972E-4,-.175E-5,0
SL-14 R/B,1987-055B,2026-06-15T17:47:38.933376,14.85710259,.00217939,82.4996,256.5919,52.2103,308.1083,0,U,18153,999,8449,.36855961E-4,.346E-5,0
COSMOS 1867,1987-060A,2026-06-15T22:41:39.046848,14.31515663,.00165068,65.0116,31.5359,282.1550,77.7686,0,U,18187,999,3400,.17818545E-4,-.53E-6,0
SL-14 R/B,1988-001B,2026-06-15T21:04:22.117728,14.85608792,.00164505,82.5132,103.0052,274.2784,85.6552,0,U,18749,999,5660,.37449592E-4,.349E-5,0
COSMOS 1933,1988-020A,2026-06-15T23:35:58.914528,15.18705934,.00034182,82.5119,153.6271,188.9557,171.1617,0,U,18958,999,6514,.15802866E-3,.3308E-4,0
SL-3 R/B,1988-032B,2026-06-15T22:15:11.395008,15.20832478,.00237631,97.5254,149.9691,249.7831,110.0849,0,U,19046,999,6703,.15751763E-3,.3429E-4,0
SL-16 R/B,1988-039B,2026-06-15T20:27:39.410208,14.19629434,.00223456,71.0139,220.9804,195.1831,164.8627,0,U,19120,999,97231,-.4035512E-5,-.57E-6,0
COSMOS 1953,1988-050A,2026-06-15T18:37:34.139712,15.29962614,.00120305,82.5082,59.4577,130.6170,229.6118,0,U,19210,999,5277,.24347264E-3,.7108E-4,0
SL-8 R/B,1988-053B,2026-06-15T20:01:29.834976,14.38966960,.00191528,74.0479,291.5509,87.3681,29.0114,0,U,19257,999,99071,.56126782E-4,.147E-5,0
COSMOS 1975,1988-093A,2026-06-15T23:26:16.868832,15.29312880,.00112031,82.5187,18.9200,175.6555,184.4784,0,U,19573,999,3442,.19897644E-3,.5699E-4,0
SL-14 R/B,1988-093B,2026-06-15T22:29:30.408000,14.85741026,.00221144,82.5310,309.8184,74.2999,47.8668,0,U,19574,999,1560,.39797527E-4,.372E-5,0
SL-16 R/B,1988-102B,2026-06-15T19:18:25.684416,14.16164577,.00158608,71.0001,305.0486,227.3300,132.6488,0,U,19650,999,94078,-.85138728E-4,-.217E-5,0
INTERCOSMOS 24,1989-080A,2026-06-15T21:42:38.151072,12.59660169,.11883773,82.6066,40.4795,64.8779,307.0790,0,U,20261,999,67916,.233906E-3,.825E-5,0
SL-14 R/B,1989-080C,2026-06-15T21:10:35.735520,12.50570094,.12288147,82.5931,110.1459,320.3880,31.3367,0,U,20262,999,67242,.77515427E-4,.26E-5,0
DELTA 1 R/B,1989-089B,2026-06-15T23:27:59.108544,14.50730725,.00691429,97.0636,358.7295,170.7850,189.4636,0,U,20323,999,90998,.74325669E-4,.266E-5,0
ARIANE 40 R/B,1990-005H,2026-06-15T20:43:17.026464,14.39926761,.00088005,98.2960,224.5206,268.9466,91.0715,0,U,20443,999,90693,.80970879E-4,.212E-5,0
DELTA 2 R/B(1),1990-008B,2026-06-15T22:01:31.201536,15.68645393,.00651846,35.5995,244.1514,102.3413,258.4633,0,U,20453,999,94150,.50863161E-3,.68207E-3,0
